{"type": "FeatureCollection", "features": [ {"type": "Feature", "properties": {"norad_id": 46989, "name": "FENGYUN 1C DEB", "group": "fengyun-1c-debris", "lat": 21.620539891541792, "lon": 156.42901631664392, "alt_km": 916.8472796422375, "timestamp": "2025-12-24T09:46:31.294866+00:00", "meta": {"OBJECT_NAME": "FENGYUN 1C DEB", "OBJECT_ID": "1999-025EZP", "EPOCH": "2025-12-23T04:58:40.076256", "MEAN_MOTION": 13.79419796, "ECCENTRICITY": 0.02437783, "INCLINATION": 99.506, "RA_OF_ASC_NODE": 159.0317, "ARG_OF_PERICENTER": 309.6358, "MEAN_ANOMALY": 234.2492, "EPHEMERIS_TYPE": 0, "CLASSIFICATION_TYPE": "U", "NORAD_CAT_ID": 46989, "ELEMENT_SET_NO": 999, "REV_AT_EPOCH": 71186, "BSTAR": 0.0044437197, "MEAN_MOTION_DOT": 5.665e-05, "MEAN_MOTION_DDOT": 0}, "tle": {"line1": "1 46989U 99025EZP 25357.20740829  .00005665  00000+0  44437-2 0  9990", "line2": "2 46989  99.5060 159.0317 0243778 309.6358 234.2492 13.79419796711863"}}, "geometry": {"type": "Point", "coordinates": [156.42901631664392, 21.620539891541792]}}, {"type": "Feature", "properties": {"norad_id": 46990, "name": "FENGYUN 1C DEB", "group": "fengyun-1c-debris", "lat": -33.15583336959816, "lon": 16.389199202946568, "alt_km": 1072.9947186142772, "timestamp": "2025-12-24T09:46:31.294876+00:00", "meta": {"OBJECT_NAME": "FENGYUN 1C DEB", "OBJECT_ID": "1999-025EZQ", "EPOCH": "2025-12-23T19:34:04.155168", "MEAN_MOTION": 14.24013723, "ECCENTRICITY": 0.03579328, "INCLINATION": 98.2311, "RA_OF_ASC_NODE": 201.2595, "ARG_OF_PERICENTER": 27.8248, "MEAN_ANOMALY": 33.133, "EPHEMERIS_TYPE": 0, "CLASSIFICATION_TYPE": "U", "NORAD_CAT_ID": 46990, "ELEMENT_SET_NO": 999, "REV_AT_EPOCH": 8687, "BSTAR": 0.0020956671, "MEAN_MOTION_DOT": 9.355e-05, "MEAN_MOTION_DDOT": 0}, "tle": {"line1": "1 46990U 99025EZQ 25357.81532587  .00009355  00000+0  20957-2 0  9990", "line2": "2 46990  98.2311 201.2595 0357932  27.8248  33.1330 14.24013723 86877"}}, "geometry": {"type": "Point", "coordinates": [16.389199202946568, -33.15583336959816]}}, {"type": "Feature", "properties": {"norad_id": 46992, "name": "FENGYUN 1C DEB", "group": "fengyun-1c-debris", "lat": 24.279124820894157, "lon": -19.19409210955442, "alt_km": 902.7854096246101, "timestamp": "2025-12-24T09:46:31.294886+00:00", "meta": {"OBJECT_NAME": "FENGYUN 1C DEB", "OBJECT_ID": "1999-025EZS", "EPOCH": "2025-12-23T16:30:50.167296", "MEAN_MOTION": 14.00713525, "ECCENTRICITY": 0.00724054, "INCLINATION": 98.9009, "RA_OF_ASC_NODE": 344.1589, "ARG_OF_PERICENTER": 130.4584, "MEAN_ANOMALY": 230.2924, "EPHEMERIS_TYPE": 0, "CLASSIFICATION_TYPE": "U", "NORAD_CAT_ID": 46992, "ELEMENT_SET_NO": 999, "REV_AT_EPOCH": 61110, "BSTAR": 0.00044651977, "MEAN_MOTION_DOT": 6.38e-06, "MEAN_MOTION_DDOT": 0}, "tle": {"line1": "1 46992U 99025EZS 25357.68808064  .00000638  00000+0  44652-3 0  9997", "line2": "2 46992  98.9009 344.1589 0072405 130.4584 230.2924 14.00713525611103"}}, "geometry": {"type": "Point", "coordinates": [-19.19409210955442, 24.279124820894157]}}, {"type": "Feature", "properties": {"norad_id": 46993, "name": "FENGYUN 1C DEB", "group": "fengyun-1c-debris", "lat": -11.523085077428256, "lon": 117.56490520992259, "alt_km": 968.2473369985955, "timestamp": "2025-12-24T09:46:31.294896+00:00", "meta": {"OBJECT_NAME": "FENGYUN 1C DEB", "OBJECT_ID": "1999-025EZT", "EPOCH": "2025-12-18T13:48:38.255328", "MEAN_MOTION": 13.69154142, "ECCENTRICITY": 0.02625123, "INCLINATION": 98.7233, "RA_OF_ASC_NODE": 110.4847, "ARG_OF_PERICENTER": 283.8917, "MEAN_ANOMALY": 132.0062, "EPHEMERIS_TYPE": 0, "CLASSIFICATION_TYPE": "U", "NORAD_CAT_ID": 46993, "ELEMENT_SET_NO": 999, "REV_AT_EPOCH": 60337, "BSTAR": 0.00040493614, "MEAN_MOTION_DOT": 4.06e-06, "MEAN_MOTION_DDOT": 0}, "tle": {"line1": "1 46993U 99025EZT 25352.57544277  .00000406  00000+0  40494-3 0  9997", "line2": "2 46993  98.7233 110.4847 0262512 283.8917 132.0062 13.69154142603375"}}, "geometry": {"type": "Point", "coordinates": [117.56490520992259, -11.523085077428256]}}, {"type": "Feature", "properties": {"norad_id": 46995, "name": "FENGYUN 1C DEB", "group": "fengyun-1c-debris", "lat": -22.328378987271748, "lon": 83.03097946018745, "alt_km": 988.6679711858087, "timestamp": "2025-12-24T09:46:31.294906+00:00", "meta": {"OBJECT_NAME": "FENGYUN 1C DEB", "OBJECT_ID": "1999-025EZV", "EPOCH": "2025-12-23T04:26:24.187488", "MEAN_MOTION": 13.8641105, "ECCENTRICITY": 0.01880773, "INCLINATION": 98.595, "RA_OF_ASC_NODE": 78.3463, "ARG_OF_PERICENTER": 89.717, "MEAN_ANOMALY": 272.5537, "EPHEMERIS_TYPE": 0, "CLASSIFICATION_TYPE": "U", "NORAD_CAT_ID": 46995, "ELEMENT_SET_NO": 999, "REV_AT_EPOCH": 60613, "BSTAR": 0.0022808923, "MEAN_MOTION_DOT": 3e-05, "MEAN_MOTION_DDOT": 0}, "tle": {"line1": "1 46995U 99025EZV 25357.18500217  .00003000  00000+0  22809-2 0  9999", "line2": "2 46995  98.5950  78.3463 0188077  89.7170 272.5537 13.86411050606131"}}, "geometry": {"type": "Point", "coordinates": [83.03097946018745, -22.328378987271748]}}, {"type": "Feature", "properties": {"norad_id": 46997, "name": "FENGYUN 1C DEB", "group": "fengyun-1c-debris", "lat": -67.0411067554847, "lon": -162.30943857548917, "alt_km": 794.8203190661006, "timestamp": "2025-12-24T09:46:31.294916+00:00", "meta": {"OBJECT_NAME": "FENGYUN 1C DEB", "OBJECT_ID": "1999-025EZX", "EPOCH": "2025-12-14T20:44:05.032032", "MEAN_MOTION": 14.28011803, "ECCENTRICITY": 0.00246638, "INCLINATION": 98.5587, "RA_OF_ASC_NODE": 29.1623, "ARG_OF_PERICENTER": 329.7037, "MEAN_ANOMALY": 205.3871, "EPHEMERIS_TYPE": 0, "CLASSIFICATION_TYPE": "U", "NORAD_CAT_ID": 46997, "ELEMENT_SET_NO": 999, "REV_AT_EPOCH": 62481, "BSTAR": 0.00094694744, "MEAN_MOTION_DOT": 2.314e-05, "MEAN_MOTION_DDOT": 0}, "tle": {"line1": "1 46997U 99025EZX 25348.86394713  .00002314  00000+0  94695-3 0  9998", "line2": "2 46997  98.5587  29.1623 0024663 329.7037 205.3871 14.28011803624819"}}, "geometry": {"type": "Point", "coordinates": [-162.30943857548917, -67.0411067554847]}}, {"type": "Feature", "properties": {"norad_id": 47001, "name": "FENGYUN 1C DEB", "group": "fengyun-1c-debris", "lat": -7.384261241467991, "lon": 58.630904537930256, "alt_km": 733.352095874493, "timestamp": "2025-12-24T09:46:31.294926+00:00", "meta": {"OBJECT_NAME": "FENGYUN 1C DEB", "OBJECT_ID": "1999-025FAB", "EPOCH": "2025-12-21T21:42:56.731392", "MEAN_MOTION": 14.38539606, "ECCENTRICITY": 0.00511443, "INCLINATION": 99.3039, "RA_OF_ASC_NODE": 54.7035, "ARG_OF_PERICENTER": 22.5834, "MEAN_ANOMALY": 337.7586, "EPHEMERIS_TYPE": 0, "CLASSIFICATION_TYPE": "U", "NORAD_CAT_ID": 47001, "ELEMENT_SET_NO": 999, "REV_AT_EPOCH": 74046, "BSTAR": 0.0013955962, "MEAN_MOTION_DOT": 4.285e-05, "MEAN_MOTION_DDOT": 0}, "tle": {"line1": "1 47001U 99025FAB 25355.90482328  .00004285  00000+0  13956-2 0  9997", "line2": "2 47001  99.3039  54.7035 0051144  22.5834 337.7586 14.38539606740465"}}, "geometry": {"type": "Point", "coordinates": [58.630904537930256, -7.384261241467991]}}, {"type": "Feature", "properties": {"norad_id": 47005, "name": "FENGYUN 1C DEB", "group": "fengyun-1c-debris", "lat": 0.3569416976637501, "lon": 88.07293425123093, "alt_km": 899.0149669734701, "timestamp": "2025-12-24T09:46:31.294937+00:00", "meta": {"OBJECT_NAME": "FENGYUN 1C DEB", "OBJECT_ID": "1999-025FAF", "EPOCH": "2025-12-21T12:05:43.680192", "MEAN_MOTION": 14.11117395, "ECCENTRICITY": 0.00655889, "INCLINATION": 99.6008, "RA_OF_ASC_NODE": 85.032, "ARG_OF_PERICENTER": 219.2127, "MEAN_ANOMALY": 159.8182, "EPHEMERIS_TYPE": 0, "CLASSIFICATION_TYPE": "U", "NORAD_CAT_ID": 47005, "ELEMENT_SET_NO": 999, "REV_AT_EPOCH": 82891, "BSTAR": 0.0018102005, "MEAN_MOTION_DOT": 3.277e-05, "MEAN_MOTION_DDOT": 0}, "tle": {"line1": "1 47005U 99025FAF 25355.50397778  .00003277  00000+0  18102-2 0  9999", "line2": "2 47005  99.6008  85.0320 0065588 219.2127 159.8182 14.11117395828919"}}, "geometry": {"type": "Point", "coordinates": [88.07293425123093, 0.3569416976637501]}}, {"type": "Feature", "properties": {"norad_id": 47007, "name": "FENGYUN 1C DEB", "group": "fengyun-1c-debris", "lat": -81.32296446682918, "lon": -31.890667883021212, "alt_km": 976.3153828239065, "timestamp": "2025-12-24T09:46:31.294946+00:00", "meta": {"OBJECT_NAME": "FENGYUN 1C DEB", "OBJECT_ID": "1999-025FAH", "EPOCH": "2025-12-16T09:44:03.870240", "MEAN_MOTION": 13.97251993, "ECCENTRICITY": 0.02368252, "INCLINATION": 98.2082, "RA_OF_ASC_NODE": 211.9995, "ARG_OF_PERICENTER": 43.4139, "MEAN_ANOMALY": 318.5411, "EPHEMERIS_TYPE": 0, "CLASSIFICATION_TYPE": "U", "NORAD_CAT_ID": 47007, "ELEMENT_SET_NO": 999, "REV_AT_EPOCH": 78900, "BSTAR": 0.0020308596, "MEAN_MOTION_DOT": 3.573e-05, "MEAN_MOTION_DDOT": 0}, "tle": {"line1": "1 47007U 99025FAH 25350.40560035  .00003573  00000+0  20309-2 0  9994", "line2": "2 47007  98.2082 211.9995 0236825  43.4139 318.5411 13.97251993789001"}}, "geometry": {"type": "Point", "coordinates": [-31.890667883021212, -81.32296446682918]}}, {"type": "Feature", "properties": {"norad_id": 47009, "name": "FENGYUN 1C DEB", "group": "fengyun-1c-debris", "lat": -40.93006731320992, "lon": 152.98230353909247, "alt_km": 865.2255174802513, "timestamp": "2025-12-24T09:46:31.294980+00:00", "meta": {"OBJECT_NAME": "FENGYUN 1C DEB", "OBJECT_ID": "1999-025FAK", "EPOCH": "2025-12-21T05:14:14.201088", "MEAN_MOTION": 13.37315869, "ECCENTRICITY": 0.0351179, "INCLINATION": 98.9317, "RA_OF_ASC_NODE": 338.0153, "ARG_OF_PERICENTER": 238.1062, "MEAN_ANOMALY": 118.5455, "EPHEMERIS_TYPE": 0, "CLASSIFICATION_TYPE": "U", "NORAD_CAT_ID": 47009, "ELEMENT_SET_NO": 999, "REV_AT_EPOCH": 58922, "BSTAR": 0.00028582, "MEAN_MOTION_DOT": 1.74e-06, "MEAN_MOTION_DDOT": 0}, "tle": {"line1": "1 47009U 99025FAK 25355.21821992  .00000174  00000+0  28582-3 0  9998", "line2": "2 47009  98.9317 338.0153 0351179 238.1062 118.5455 13.37315869589221"}}, "geometry": {"type": "Point", "coordinates": [152.98230353909247, -40.93006731320992]}}]}